UNKNOWN                 
1 82783U          25339.14470327  .00001451  00000+0  42086-2 0  9990
2 82783  90.3415  37.9349 0026120 136.6317 223.6872 13.09011823503360
UNKNOWN                 
1 82798U          25338.38244633  .00004376  00000+0  19339-2 0  9994
2 82798  82.9514 198.4863 0028608 197.0141 339.5953 14.22853628311183
UNKNOWN                 
1 82820U          25337.19522384  .00004900  00000+0  17214-2 0  9993
2 82820  99.7871 136.6804 0048659  42.4812 318.0119 14.34821140624265
UNKNOWN                 
1 82854U          25336.01027073  .00002552  00000+0  20117-2 0  9992
2 82854  82.6891  73.0180 0126258 310.3434  48.6754 13.87721114606319
UNKNOWN                 
1 82873U          25335.93370391  .00004729  00000+0  20532-2 0  9996
2 82873  99.9960 228.6277 0040894 316.1504  43.6426 14.24282148619693
UNKNOWN                 
1 82875U          25337.21289903  .00001875  00000+0  49786-3 0  9991
2 82875  98.6723 320.7941 0377443 310.5294  46.3566 14.15119517543125
UNKNOWN                 
1 82893U          25336.26097618  .00010289  00000+0  38862-2 0  9996
2 82893  98.9620  91.0172 0023428  79.5185 280.8635 14.31323433422478
UNKNOWN                 
1 82912U          25330.38402482  .00004199  00000+0  17263-2 0  9999
2 82912  65.8357 211.9692 0777383 276.2703  75.0423 13.27527729577151
UNKNOWN                 
1 82961U          25332.39346177  .00010294  00000+0  16926-1 0  9991
2 82961  99.9125 127.6218 0375100  38.7846 323.9572 13.22925587553819
UNKNOWN                 
1 82965U          25339.18070095  .00001761  00000+0  24247-2 0  9997
2 82965 100.1161  58.4639 0002740 181.3441 178.7690 13.59978854523425
UNKNOWN                 
1 83903U          25338.81269830 -.00000348  00000+0  00000+0 0  9995
2 83903   6.2048 290.6915 0124219 251.2778 320.4812  0.99116432 43583
UNKNOWN                 
1 83934U          25339.13936141  .00000022  00000+0  00000+0 0  9999
2 83934   5.8012 297.5603 0233398 273.0738 259.5020  1.02660194 45208
