CCSDS_OMM_VERS = 2.0
CREATION_DATE  = 
ORIGINATOR     = 

OBJECT_NAME    = UNKNOWN
OBJECT_ID      = 
CENTER_NAME    = EARTH
REF_FRAME      = TEME
TIME_SYSTEM    = UTC
MEAN_ELEMENT_THEORY = SGP/SGP4

EPOCH          = 2025-12-05T03:28:22.362528
MEAN_MOTION    = 13.09011823
ECCENTRICITY   = .002612
INCLINATION    = 90.3415
RA_OF_ASC_NODE = 37.9349
ARG_OF_PERICENTER = 136.6317
MEAN_ANOMALY   = 223.6872

EPHEMERIS_TYPE = 0
CLASSIFICATION_TYPE = U
NORAD_CAT_ID   = 82783
ELEMENT_SET_NO = 999
REV_AT_EPOCH   = 50336
BSTAR          = .42086E-2
MEAN_MOTION_DOT = .1451E-4
MEAN_MOTION_DDOT = 0

CCSDS_OMM_VERS = 2.0
CREATION_DATE  = 
ORIGINATOR     = 

OBJECT_NAME    = UNKNOWN
OBJECT_ID      = 
CENTER_NAME    = EARTH
REF_FRAME      = TEME
TIME_SYSTEM    = UTC
MEAN_ELEMENT_THEORY = SGP/SGP4

EPOCH          = 2025-12-04T09:10:43.362912
MEAN_MOTION    = 14.22853628
ECCENTRICITY   = .0028608
INCLINATION    = 82.9514
RA_OF_ASC_NODE = 198.4863
ARG_OF_PERICENTER = 197.0141
MEAN_ANOMALY   = 339.5953

EPHEMERIS_TYPE = 0
CLASSIFICATION_TYPE = U
NORAD_CAT_ID   = 82798
ELEMENT_SET_NO = 999
REV_AT_EPOCH   = 31118
BSTAR          = .19339E-2
MEAN_MOTION_DOT = .4376E-4
MEAN_MOTION_DDOT = 0

CCSDS_OMM_VERS = 2.0
CREATION_DATE  = 
ORIGINATOR     = 

OBJECT_NAME    = UNKNOWN
OBJECT_ID      = 
CENTER_NAME    = EARTH
REF_FRAME      = TEME
TIME_SYSTEM    = UTC
MEAN_ELEMENT_THEORY = SGP/SGP4

EPOCH          = 2025-12-03T04:41:07.339776
MEAN_MOTION    = 14.34821140
ECCENTRICITY   = .0048659
INCLINATION    = 99.7871
RA_OF_ASC_NODE = 136.6804
ARG_OF_PERICENTER = 42.4812
MEAN_ANOMALY   = 318.0119

EPHEMERIS_TYPE = 0
CLASSIFICATION_TYPE = U
NORAD_CAT_ID   = 82820
ELEMENT_SET_NO = 999
REV_AT_EPOCH   = 62426
BSTAR          = .17214E-2
MEAN_MOTION_DOT = .49E-4
MEAN_MOTION_DDOT = 0

CCSDS_OMM_VERS = 2.0
CREATION_DATE  = 
ORIGINATOR     = 

OBJECT_NAME    = UNKNOWN
OBJECT_ID      = 
CENTER_NAME    = EARTH
REF_FRAME      = TEME
TIME_SYSTEM    = UTC
MEAN_ELEMENT_THEORY = SGP/SGP4

EPOCH          = 2025-12-02T00:14:47.391072
MEAN_MOTION    = 13.87721114
ECCENTRICITY   = .0126258
INCLINATION    = 82.6891
RA_OF_ASC_NODE = 73.0180
ARG_OF_PERICENTER = 310.3434
MEAN_ANOMALY   = 48.6754

EPHEMERIS_TYPE = 0
CLASSIFICATION_TYPE = U
NORAD_CAT_ID   = 82854
ELEMENT_SET_NO = 999
REV_AT_EPOCH   = 60631
BSTAR          = .20117E-2
MEAN_MOTION_DOT = .2552E-4
MEAN_MOTION_DDOT = 0

CCSDS_OMM_VERS = 2.0
CREATION_DATE  = 
ORIGINATOR     = 

OBJECT_NAME    = UNKNOWN
OBJECT_ID      = 
CENTER_NAME    = EARTH
REF_FRAME      = TEME
TIME_SYSTEM    = UTC
MEAN_ELEMENT_THEORY = SGP/SGP4

EPOCH          = 2025-12-01T22:24:32.017824
MEAN_MOTION    = 14.24282148
ECCENTRICITY   = .0040894
INCLINATION    = 99.9960
RA_OF_ASC_NODE = 228.6277
ARG_OF_PERICENTER = 316.1504
MEAN_ANOMALY   = 43.6426

EPHEMERIS_TYPE = 0
CLASSIFICATION_TYPE = U
NORAD_CAT_ID   = 82873
ELEMENT_SET_NO = 999
REV_AT_EPOCH   = 61969
BSTAR          = .20532E-2
MEAN_MOTION_DOT = .4729E-4
MEAN_MOTION_DDOT = 0

CCSDS_OMM_VERS = 2.0
CREATION_DATE  = 
ORIGINATOR     = 

OBJECT_NAME    = UNKNOWN
OBJECT_ID      = 
CENTER_NAME    = EARTH
REF_FRAME      = TEME
TIME_SYSTEM    = UTC
MEAN_ELEMENT_THEORY = SGP/SGP4

EPOCH          = 2025-12-03T05:06:34.476192
MEAN_MOTION    = 14.15119517
ECCENTRICITY   = .0377443
INCLINATION    = 98.6723
RA_OF_ASC_NODE = 320.7941
ARG_OF_PERICENTER = 310.5294
MEAN_ANOMALY   = 46.3566

EPHEMERIS_TYPE = 0
CLASSIFICATION_TYPE = U
NORAD_CAT_ID   = 82875
ELEMENT_SET_NO = 999
REV_AT_EPOCH   = 54312
BSTAR          = .49786E-3
MEAN_MOTION_DOT = .1875E-4
MEAN_MOTION_DDOT = 0

CCSDS_OMM_VERS = 2.0
CREATION_DATE  = 
ORIGINATOR     = 

OBJECT_NAME    = UNKNOWN
OBJECT_ID      = 
CENTER_NAME    = EARTH
REF_FRAME      = TEME
TIME_SYSTEM    = UTC
MEAN_ELEMENT_THEORY = SGP/SGP4

EPOCH          = 2025-12-02T06:15:48.341952
MEAN_MOTION    = 14.31323433
ECCENTRICITY   = .0023428
INCLINATION    = 98.9620
RA_OF_ASC_NODE = 91.0172
ARG_OF_PERICENTER = 79.5185
MEAN_ANOMALY   = 280.8635

EPHEMERIS_TYPE = 0
CLASSIFICATION_TYPE = U
NORAD_CAT_ID   = 82893
ELEMENT_SET_NO = 999
REV_AT_EPOCH   = 42247
BSTAR          = .38862E-2
MEAN_MOTION_DOT = .10289E-3
MEAN_MOTION_DDOT = 0

CCSDS_OMM_VERS = 2.0
CREATION_DATE  = 
ORIGINATOR     = 

OBJECT_NAME    = UNKNOWN
OBJECT_ID      = 
CENTER_NAME    = EARTH
REF_FRAME      = TEME
TIME_SYSTEM    = UTC
MEAN_ELEMENT_THEORY = SGP/SGP4

EPOCH          = 2025-11-26T09:12:59.744448
MEAN_MOTION    = 13.27527729
ECCENTRICITY   = .0777383
INCLINATION    = 65.8357
RA_OF_ASC_NODE = 211.9692
ARG_OF_PERICENTER = 276.2703
MEAN_ANOMALY   = 75.0423

EPHEMERIS_TYPE = 0
CLASSIFICATION_TYPE = U
NORAD_CAT_ID   = 82912
ELEMENT_SET_NO = 999
REV_AT_EPOCH   = 57715
BSTAR          = .17263E-2
MEAN_MOTION_DOT = .4199E-4
MEAN_MOTION_DDOT = 0

CCSDS_OMM_VERS = 2.0
CREATION_DATE  = 
ORIGINATOR     = 

OBJECT_NAME    = UNKNOWN
OBJECT_ID      = 
CENTER_NAME    = EARTH
REF_FRAME      = TEME
TIME_SYSTEM    = UTC
MEAN_ELEMENT_THEORY = SGP/SGP4

EPOCH          = 2025-11-28T09:26:35.096928
MEAN_MOTION    = 13.22925587
ECCENTRICITY   = .03751
INCLINATION    = 99.9125
RA_OF_ASC_NODE = 127.6218
ARG_OF_PERICENTER = 38.7846
MEAN_ANOMALY   = 323.9572

EPHEMERIS_TYPE = 0
CLASSIFICATION_TYPE = U
NORAD_CAT_ID   = 82961
ELEMENT_SET_NO = 999
REV_AT_EPOCH   = 55381
BSTAR          = .16926E-1
MEAN_MOTION_DOT = .10294E-3
MEAN_MOTION_DDOT = 0

CCSDS_OMM_VERS = 2.0
CREATION_DATE  = 
ORIGINATOR     = 

OBJECT_NAME    = UNKNOWN
OBJECT_ID      = 
CENTER_NAME    = EARTH
REF_FRAME      = TEME
TIME_SYSTEM    = UTC
MEAN_ELEMENT_THEORY = SGP/SGP4

EPOCH          = 2025-12-05T04:20:12.562080
MEAN_MOTION    = 13.59978854
ECCENTRICITY   = .000274
INCLINATION    = 100.1161
RA_OF_ASC_NODE = 58.4639
ARG_OF_PERICENTER = 181.3441
MEAN_ANOMALY   = 178.7690

EPHEMERIS_TYPE = 0
CLASSIFICATION_TYPE = U
NORAD_CAT_ID   = 82965
ELEMENT_SET_NO = 999
REV_AT_EPOCH   = 52342
BSTAR          = .24247E-2
MEAN_MOTION_DOT = .1761E-4
MEAN_MOTION_DDOT = 0

CCSDS_OMM_VERS = 2.0
CREATION_DATE  = 
ORIGINATOR     = 

OBJECT_NAME    = UNKNOWN
OBJECT_ID      = 
CENTER_NAME    = EARTH
REF_FRAME      = TEME
TIME_SYSTEM    = UTC
MEAN_ELEMENT_THEORY = SGP/SGP4

EPOCH          = 2025-12-04T19:30:17.133120
MEAN_MOTION    = 0.99116432
ECCENTRICITY   = .0124219
INCLINATION    = 6.2048
RA_OF_ASC_NODE = 290.6915
ARG_OF_PERICENTER = 251.2778
MEAN_ANOMALY   = 320.4812

EPHEMERIS_TYPE = 0
CLASSIFICATION_TYPE = U
NORAD_CAT_ID   = 83903
ELEMENT_SET_NO = 999
REV_AT_EPOCH   = 4358
BSTAR          = 0
MEAN_MOTION_DOT = -.348E-5
MEAN_MOTION_DDOT = 0

CCSDS_OMM_VERS = 2.0
CREATION_DATE  = 
ORIGINATOR     = 

OBJECT_NAME    = UNKNOWN
OBJECT_ID      = 
CENTER_NAME    = EARTH
REF_FRAME      = TEME
TIME_SYSTEM    = UTC
MEAN_ELEMENT_THEORY = SGP/SGP4

EPOCH          = 2025-12-05T03:20:40.825824
MEAN_MOTION    = 1.02660194
ECCENTRICITY   = .0233398
INCLINATION    = 5.8012
RA_OF_ASC_NODE = 297.5603
ARG_OF_PERICENTER = 273.0738
MEAN_ANOMALY   = 259.5020

EPHEMERIS_TYPE = 0
CLASSIFICATION_TYPE = U
NORAD_CAT_ID   = 83934
ELEMENT_SET_NO = 999
REV_AT_EPOCH   = 4520
BSTAR          = 0
MEAN_MOTION_DOT = .22E-6
MEAN_MOTION_DDOT = 0

